STARLINK-32427          
1 61848U 24202D   25064.57958314  .00015306  00000+0  37379-3 0  9992
2 61848  43.0087 163.6961 0003400 275.5351  84.5117 15.40628654 19443
STARLINK-32346          
1 61849U 24202E   25064.31579449  .00000361  00000+0  15927-4 0  9994
2 61849  43.0039 165.1520 0003421 284.0706  75.9770 15.40702155 18820
STARLINK-32330          
1 61850U 24202F   25064.57283586 -.00016359  00000+0 -38408-3 0  9992
2 61850  43.0053 163.6428 0003570 259.3717 100.6737 15.40778179 19447
STARLINK-32379          
1 61851U 24202G   25064.57736828 -.00002658  00000+0 -56423-4 0  9990
2 61851  43.0032 163.6761 0001994 275.4821  84.5808 15.40673136 19365
STARLINK-32433          
1 61852U 24202H   25064.31131113 -.00002011  00000+0 -40886-4 0  9998
2 61852  43.0043 165.1210 0000556 196.9783 163.1055 15.40713619 18831
STARLINK-32394          
1 61853U 24202J   25064.30906291  .00001584  00000+0  45168-4 0  9995
2 61853  43.0047 165.0991 0001886 279.6038  80.4605 15.40709422 18828
STARLINK-32486          
1 61854U 24202K   25064.30682856  .00001183  00000+0  35580-4 0  9996
2 61854  43.0059 165.0856 0001492 282.7564  77.3126 15.40706946 19400
STARLINK-32391          
1 61855U 24202L   25064.62874212 -.00006139  00000+0 -13992-3 0  9991
2 61855  42.9995 163.1937 0000161 255.2811 104.8028 15.40681170 19452
STARLINK-32483          
1 61856U 24202M   25064.30234205 -.00000387  00000+0 -19992-5 0  9996
2 61856  43.0037 165.0495 0001415 268.6149  91.4545 15.40719606 19403
STARLINK-32451          
1 61857U 24202N   25064.55719204 -.00001119  00000+0 -19528-4 0  9999
2 61857  43.0052 163.5208 0001246 256.6396 103.4321 15.40687851 18871
STARLINK-32556          
1 61858U 24202P   25064.62425221  .00003612  00000+0  93685-4 0  9995
2 61858  42.9991 163.1668 0000874 219.5329 140.5463 15.40697395 19456
STARLINK-32466          
1 61859U 24202Q   25064.68461754 -.00002139  00000+0 -43992-4 0  9994
2 61859  43.0039 162.7520 0001398 262.5417  97.5281 15.40681243 19467
STARLINK-32316          
1 61860U 24202R   25064.67789382  .00000683  00000+0  23629-4 0  9990
2 61860  43.0027 162.7020 0000868 255.7965 104.2796 15.40684699 19391
STARLINK-32415          
1 61861U 24202S   25064.55046365  .00002063  00000+0  56648-4 0  9996
2 61861  43.0059 163.4665 0001736 258.8039 101.2622 15.40701056 19135
STARLINK-32393          
1 61862U 24202T   25064.68235594 -.00003474  00000+0 -75913-4 0  9990
2 61862  43.0023 162.7362 0001006 243.0257 117.0497 15.40711228 19318
STARLINK-32324          
1 61863U 24202U   25064.61082108  .00001604  00000+0  45667-4 0  9999
2 61863  42.9967 163.0551 0001101 130.2767 229.8186 15.40686647 19455
STARLINK-32318          
1 61864U 24202V   25063.56927591 -.00025708  00000+0 -61490-3 0  9991
2 61864  43.0041 169.0020 0001776 136.6690 223.4306 15.40469495 18724
STARLINK-32401          
1 61865U 24202W   25064.73472746 -.00107701  00000+0 -26887-2 0  9993
2 61865  43.0027 162.2663 0001828 260.5372  99.5277 15.39773964 19478
STARLINK-32588          
1 61866U 24202X   25064.83335648 -.00070948  00000+0 -17056-2 0  9994
2 61866  43.0009 161.7488 0001471 263.7176 264.5875 15.40723975 19498
STARLINK-32569          
1 61867U 24202Y   25064.83335648 -.01067670  00000+0 -31137-1 0  9999
2 61867  43.0007 161.6792 0001277 266.7316 289.6303 15.37291813 19498
STARLINK-11402 [DTC]    
1 61874U 24204A   25064.17613680 -.00002254  00000+0 -13736-4 0  9995
2 61874  53.1580  18.2026 0001392  60.5795 299.5362 15.69720676 18875
STARLINK-11316 [DTC]    
1 61875U 24204B   25064.11726591  .00000896  00000+0  12260-4 0  9995
2 61875  53.1603  17.7874 0001697 114.5780 245.5414 15.69717315 18874
STARLINK-11401 [DTC]    
1 61876U 24204C   25064.29857299 -.00000160  00000+0  35468-5 0  9996
2 61876  53.1583  17.5187 0001708  54.8409 305.2768 15.69710973 18895
STARLINK-11321 [DTC]    
1 61877U 24204D   25064.10265194  .00000797  00000+0  11439-4 0  9990
2 61877  53.1576  18.4267 0001050  85.7746 274.3392 15.69711247 18854
STARLINK-11314 [DTC]    
1 61878U 24204E   25064.16140635  .00000937  00000+0  12584-4 0  9997
2 61878  53.1582  18.0755 0001266  69.9764 290.1390 15.69728155 18875
STARLINK-11324 [DTC]    
1 61879U 24204F   25064.28384187 -.00001400  00000+0 -66891-5 0  9992
2 61879  53.1575  17.4178 0001100  83.8636 276.2507 15.69726595 18893
STARLINK-11328 [DTC]    
1 61880U 24204G   25064.85197305 -.00000461  00000+0  10548-5 0  9994
2 61880  53.1590  14.5624 0001094  87.5424 272.5719 15.69704447 18980
STARLINK-11329 [DTC]    
1 61881U 24204H   25064.59237436 -.00000819  00000+0 -18968-5 0  9998
2 61881  53.1587  15.7851 0001187  96.0979 264.0174 15.69727737 18949
STARLINK-11398 [DTC]    
1 61882U 24204J   25064.84216323 -.00001155  00000+0 -46734-5 0  9995
2 61882  53.1589  14.4952 0001378  94.1544 265.9631 15.69706844 18987
STARLINK-11383 [DTC]    
1 61883U 24204K   25064.13198217 -.00000539  00000+0  41899-6 0  9991
2 61883  53.1586  17.8818 0001586 100.6632 259.4564 15.69714671 18873
STARLINK-11359 [DTC]    
1 61884U 24204L   25064.58257872 -.00000762  00000+0 -14258-5 0  9991
2 61884  53.1585  15.7186 0001486  94.8429 265.2758 15.69707949 18943
STARLINK-11301 [DTC]    
1 61885U 24204M   25064.57275185 -.00001236  00000+0 -53379-5 0  9992
2 61885  53.1591  15.6533 0001153  97.3853 262.7296 15.69729101 18949
STARLINK-11351 [DTC]    
1 61886U 24204N   25064.56784538 -.00000452  00000+0  11321-5 0  9998
2 61886  53.1600  15.6153 0001266 102.0640 258.0520 15.69729221 18943
STARLINK-32410          
1 61887U 24204P   25064.36951599  .00001304  00000+0  56147-4 0  9990
2 61887  53.1609  42.4907 0001574 128.9439 231.1702 15.30198368 18554
STARLINK-32377          
1 61888U 24204Q   25064.23150117  .00000691  00000+0  35449-4 0  9994
2 61888  53.1614  43.0483 0001306  93.8140 266.3010 15.30196356 18523
STARLINK-32292          
1 61889U 24204R   25064.31369475  .00001377  00000+0  58622-4 0  9993
2 61889  53.1625  42.8505 0001302  97.0357 263.0792 15.30200948 18546
STARLINK-32501          
1 61890U 24204S   25064.32952816  .00004641  00000+0  16885-3 0  9994
2 61890  53.1613  42.9422 0001830 108.4527 251.6672 15.30178203 18544
STARLINK-32383          
1 61891U 24204T   25064.32320036  .00002496  00000+0  96410-4 0  9997
2 61891  53.1605  42.9051 0001282  97.8627 262.2519 15.30186970 18545
STARLINK-32239          
1 61892U 24204U   25064.66349606 -.00001935  00000+0 -53229-4 0  9999
2 61892  53.1620  41.4811 0001482  85.7518 274.3652 15.30193358 18593
STARLINK-32489          
1 61893U 24204V   25064.35262811  .00002939  00000+0  11130-3 0  9995
2 61893  53.1616  42.3809 0001296  83.3049 276.8099 15.30201767 18543
STARLINK-32303          
1 61912U 24207A   25064.77014587 -.00001707  00000+0 -45248-4 0  9993
2 61912  43.0037 210.1318 0001713 287.3409  72.7257 15.32088023 18820
STARLINK-32434          
1 61913U 24207B   25064.67354882 -.00000885  00000+0 -19281-4 0  9992
2 61913  43.0039 211.1326 0001449 263.1701  96.8987 15.32092999 18640
STARLINK-32460          
1 61914U 24207C   25064.40376448  .00000384  00000+0  20838-4 0  9998
2 61914  43.0027 212.5459 0001750 288.8036  71.2627 15.32096739 18183
STARLINK-32559          
1 61915U 24207D   25064.45994214 -.00001398  00000+0 -35485-4 0  9993
2 61915  43.0027 212.1051 0001595 275.1111  84.9560 15.32100790 18199
STARLINK-32541          
1 61916U 24207E   25064.81957383 -.00001267  00000+0 -31344-4 0  9995
2 61916  43.0030 209.6386 0001266 276.1475  83.9234 15.32083411 18675
STARLINK-32544          
1 61917U 24207F   25064.77690569 -.00000023  00000+0  80000-5 0  9993
2 61917  43.0067 210.1883 0002804 306.6231  53.4365 15.32082147 18664
STARLINK-32555          
1 61918U 24207G   25064.68243444  .00007088  00000+0  23276-3 0  9997
2 61918  43.0032 210.3276 0001194 192.9712 167.1111 15.32053931 18656
STARLINK-32547          
1 61919U 24207H   25064.39925500 -.00000349  00000+0 -23128-5 0  9999
2 61919  43.0025 212.5102 0001680 277.7230  82.3432 15.32097741 18176
STARLINK-32616          
1 61920U 24207J   25064.76337570  .00001617  00000+0  59778-4 0  9992
2 61920  43.0028 210.0753 0001733 284.6608  75.4053 15.32100002 18820
STARLINK-32605          
1 61921U 24207K   25064.71620475 -.00003462  00000+0 -10067-3 0  9996
2 61921  43.0056 210.5916 0002514 294.3630  65.6961 15.32115376 18817
STARLINK-32579          
1 61922U 24207L   25064.82406449  .00000056  00000+0  10473-4 0  9998
2 61922  43.0042 209.6697 0001437 274.0383  86.0307 15.32101490 18735
STARLINK-32537          
1 61923U 24207M   25064.41713527  .00002833  00000+0  98179-4 0  9996
2 61923  43.0019 211.7760 0001622 275.9336  84.1332 15.32101625 18196
STARLINK-32564          
1 61924U 24207N   25064.81505305  .00001827  00000+0  66420-4 0  9990
2 61924  43.0031 209.6026 0001367 266.6892  93.3805 15.32094606 18841
STARLINK-32536          
1 61925U 24207P   25064.67566463 -.00000492  00000+0 -68557-5 0  9990
2 61925  43.0023 210.2733 0001492 263.6145  96.4539 15.32090639 18821
STARLINK-32624          
1 61926U 24207Q   25064.79717514  .00000184  00000+0  14520-4 0  9995
2 61926  42.9993 210.3333 0001212 243.7066 116.3663 15.32089432 18834
STARLINK-32622          
1 61927U 24207R   25064.79266167  .00001512  00000+0  56435-4 0  9996
2 61927  43.0014 210.3022 0000765 251.5221 108.5549 15.32102872 18726
STARLINK-32620          
1 61928U 24207S   25064.76787573 -.00003642  00000+0 -10634-3 0  9991
2 61928  43.0020 210.1103 0001909 288.6219  71.4427 15.32123434 18664
STARLINK-32609          
1 61929U 24207T   25064.77238604 -.00000622  00000+0 -10927-4 0  9990
2 61929  43.0017 210.1460 0002250 251.0177 109.0433 15.32099161 18668
STARLINK-32567          
1 61930U 24207U   25064.67061415  .00006474  00000+0  15745-3 0  9996
2 61930  42.9994 205.0367 0002059 308.6860  51.3812 15.41588957 18875
